OPTUS D3                
1 35756U 09044B   16293.65527258 -.00000167  00000-0  00000-0 0  9999
2 35756   0.0511  39.9567 0002745 179.8752 200.6453  1.00271381 26192
PALAPA D                
1 35812U 09046A   16293.60699980 -.00000378  00000-0  00000-0 0  9995
2 35812   0.0042 231.4478 0002594  15.4484 113.0765  1.00268266 26318
NIMIQ 5                 
1 35873U 09050A   16294.53321257  .00000000  00000-0  10000-3 0  9994
2 35873   0.0406 117.4709 0002020  91.3542 299.8050  1.00263940 25336
AMAZONAS 2              
1 35942U 09054A   16294.31984690 -.00000303  00000-0  00000+0 0  9999
2 35942   0.0450 120.4383 0004617  65.7364 257.1785  1.00268253 25823
COMSATBW-1              
1 35943U 09054B   16294.09758395  .00000000  00000-0  10000-3 0  9994
2 35943   0.0385  94.9383 0004659  58.7729 333.4817  1.00270034 25890
NSS-12                  
1 36032U 09058A   16293.76202557  .00000051  00000-0  00000-0 0  9997
2 36032   0.0106 105.4887 0002615 113.2560 141.2634  1.00273061 25578
THOR 6                  
1 36033U 09058B   16293.79325096 -.00000030  00000-0  00000+0 0  9992
2 36033   0.0272 134.7058 0001938  72.3001 106.4237  1.00271260 25593
INTELSAT 14 (IS-14)     
1 36097U 09064A   16293.04734170 -.00000292  00000-0  00000+0 0  9994
2 36097   0.0181 234.1106 0002794 346.5958 139.2727  1.00268316 25337
EUTELSAT 36B            
1 36101U 09065A   16294.06229822  .00000135  00000-0  00000+0 0  9992
2 36101   0.0703 355.5592 0004817 228.5988 223.1775  1.00275319 25449
INTELSAT 15 (IS-15)     
1 36106U 09067A   16293.85750973 -.00000205  00000-0  00000-0 0  9991
2 36106   0.0115 246.9938 0002467 334.2000 201.4117  1.00269629  5935
DIRECTV 12              
1 36131U 09075A   16293.57916208 -.00000123  00000-0  00000+0 0  9990
2 36131   0.0135  34.0088 0000147 201.3820 258.7782  1.00271969 25018
BEIDOU G1               
1 36287U 10001A   16294.54256718  .00000000  00000-0  10000-3 0  9992
2 36287   1.5224   5.4109 0005755 218.6807 140.7183  1.00267795 24800
RADUGA-1M 2             
1 36358U 10002A   16294.28470013  .00000098  00000-0  10000-3 0  9996
2 36358   0.0189 194.8761 0002901  62.5092 319.1968  1.00265870 24650
SDO                     
1 36395U 10005A   16294.40344928 -.00000063  00000-0  00000+0 0  9997
2 36395  28.5102 144.7538 0001518 137.6228 150.4752  1.00274174 24660
INTELSAT 16 (IS-16)     
1 36397U 10006A   16294.30779686 -.00000306  00000-0  00000+0 0  9992
2 36397   0.0166 274.0469 0002003 330.2383 197.6302  1.00272757 24377
GOES 15                 
1 36411U 10008A   16294.29315188  .00000064  00000-0  00000+0 0  9992
2 36411   0.2792 271.6359 0003277 303.9756 144.3925  1.00283827 24322
ECHOSTAR 14             
1 36499U 10010A   16293.82366781  .00000000  00000-0  10000-3 0  9999
2 36499   0.0138 157.0990 0002235  51.2182 358.0620  1.00270006 24171
SES-1                   
1 36516U 10016A   16293.40648241 -.00000133  00000-0  00000-0 0  9997
2 36516   0.0441  55.7676 0002161 144.0548 233.8267  1.00271058 23688
ASTRA 3B                
1 36581U 10021A   16293.73399969  .00000117  00000-0  00000+0 0  9991
2 36581   0.0705 306.7368 0003280 265.6508 103.9929  1.00271199 23272
COMSATBW-2              
1 36582U 10021B   16293.92610356  .00000069  00000-0  00000-0 0  9996
2 36582   0.0569 272.7829 0002917 328.4810 134.2191  1.00276804 23608
BEIDOU G3               
1 36590U 10024A   16293.96891603 -.00000375  00000-0  00000+0 0  9998
2 36590   1.3711  25.8679 0005236 292.7827 169.4900  1.00277912 23416
BADR-5                  
1 36592U 10025A   16293.94342483  .00000124  00000-0  00000-0 0  9998
2 36592   0.0092 215.6734 0004939 343.2075 195.5849  1.00271269 17844
COMS 1                  
1 36744U 10032A   16293.87202405 -.00000365  00000-0  00000-0 0  9994
2 36744   0.0403 101.8099 0001195 153.2334 215.8605  1.00270310 15724
ARABSAT-5A              
1 36745U 10032B   16294.06229822  .00000133  00000-0  00000+0 0  9990
2 36745   0.0586 352.3836 0003623 221.3738 228.1461  1.00274433 23267
ECHOSTAR 15             
1 36792U 10034A   16294.07026002 -.00000302  00000-0  00000+0 0  9999
2 36792   0.0153  48.8014 0002924 184.6597 119.1684  1.00270374 23021
NILESAT 201             
1 36830U 10037A   16294.23721428 -.00000078  00000-0  00000+0 0  9997
2 36830   0.0472 163.0511 0004285  40.2890 264.1847  1.00272395 22920
RASCOM-QAF 1R           
1 36831U 10037B   16293.91180335 -.00000001  00000-0  00000-0 0  9995
2 36831   0.0195 285.5783 0005866 297.8297 136.5722  1.00272311 22934
CHINASAT 6A (ZX 6A)     
1 37150U 10042A   16294.23080578  .00000000  00000-0  10000-3 0  9992
2 37150   0.0031 249.5089 0000494 209.7488 137.9793  1.00263740 18296
QZS-1 (MICHIBIKI)       
1 37158U 10045A   16291.67486334 -.00000146  00000-0  00000+0 0  9995
2 37158  40.7400 162.8572 0744617 269.8384 333.0486  1.00293209 22323
XM-5                    
1 37185U 10053A   16293.49045470 -.00000224  00000-0  00000+0 0  9995
2 37185   0.0141 239.8657 0000254  81.7308 158.1414  1.00269153 22072
BSAT-3B                 
1 37207U 10056B   16293.91935520 -.00000371  00000-0  00000-0 0  9998
2 37207   0.0472 350.5927 0003809 279.9720 199.0981  1.00271010 16917
BEIDOU G4               
1 37210U 10057A   16293.76267690 -.00000131  00000-0  00000-0 0  9996
2 37210   0.9696  52.8856 0009613 175.5153 234.8599  1.00272728 21928
SKYTERRA 1              
1 37218U 10061A   16293.11385055 -.00000140  00000-0  00000+0 0  9993
2 37218   3.5225 328.0512 0005979 204.8527 154.8080  1.00271991 21851
ZHONGXING-20A           
1 37234U 10064A   16293.93581126  .00000000  00000-0  10000-3 0  9990
2 37234   0.0478 108.9095 0003987 156.2858 230.5912  1.00268280 21668
HYLAS 1                 
1 37237U 10065A   16292.29819634 -.00000251  00000-0  00000-0 0  9995
2 37237   0.0982  73.7245 0001794 143.6639 243.6726  1.00269104 21606
INTELSAT 17 (IS-17)     
1 37238U 10065B   16294.34117433  .00000000  00000-0  10000-3 0  9997
2 37238   0.0084 167.8058 0002709  49.3377   0.9420  1.00269650 21561
EUTELSAT KA-SAT 9A      
1 37258U 10069A   16292.89775133  .00000043  00000-0  00000+0 0  9990
2 37258   0.0557 284.1607 0002100 283.4239 152.4328  1.00269913 21443
HISPASAT 1E             
1 37264U 10070A   16294.31035581 -.00000237  00000-0  00000+0 0  9990
2 37264   0.0559 102.0631 0004924  93.7385 275.1466  1.00271613 21308
KOREASAT 6              
1 37265U 10070B   16293.83048132 -.00000382  00000-0  00000-0 0  9995
2 37265   0.0089 208.7296 0002376  34.8969 200.0922  1.00269967 21405
ELEKTRO-L 1 (GOMS 2)    
1 37344U 11001A   16293.85313483 -.00000145  00000-0  00000-0 0  9991
2 37344   1.9467  78.7794 0001879 256.8805 344.8276  1.00252853 21093
BEIDOU IGSO 3           
1 37384U 11013A   16294.07537560 -.00000166  00000-0  10000-3 0  9994
2 37384  57.5275  75.4522 0025874 201.5496 260.0392  1.00275647 20316
INTELSAT NEW DAWN       
1 37392U 11016A   16294.45393619  .00000000  00000-0  10000-3 0  9999
2 37392   0.0143 210.3062 0001545  45.0564 330.2025  1.00268813 20159
YAHSAT 1A               
1 37393U 11016B   16294.39809367 -.00000132  00000-0  10000-3 0  9992
2 37393   0.0174 212.3231 0001787  36.2734 336.6037  1.00272362 20206
TELSTAR 14R             
1 37602U 11021A   16294.37005130  .00000000  00000-0  10000-3 0  9998
2 37602   0.0659  86.5890 0001946 190.6476 182.1995  1.00265082 20426
GSAT-8                  
1 37605U 11022A   16294.03730892  .00000000  00000-0  10000-3 0  9995
2 37605   0.0500  80.5263 0006742 173.6257 203.3593  1.00273418 18653
ST-2                    
1 37606U 11022B   16293.96626383 -.00000232  00000-0  00000+0 0  9999
2 37606   0.0175 204.7924 0002075  39.2081 220.7445  1.00272074 19885
CHINASAT 10 (ZX 10)     
1 37677U 11026A   16294.25185671  .00000000  00000-0  10000-3 0  9991
2 37677   0.0072 214.3391 0005672  32.6149 343.3191  1.00263859 19221
TIANLIAN 1-02           
1 37737U 11032A   16293.70149549  .00000011  00000-0  00000+0 0  9995
2 37737   2.0999  78.5570 0008724 156.0402 223.3699  1.00268045 19357
GSAT-12                 
1 37746U 11034A   16294.03184953 -.00000185  00000-0  00000+0 0  9995
2 37746   0.1235  92.6490 0003755  26.4501   4.3106  1.00271738 19584
SES-3                   
1 37748U 11035A   16294.06299454 -.00000123  00000-0  00000+0 0  9996
2 37748   0.0228 295.3972 0002411 285.1049  88.1407  1.00273318 19325
KAZSAT-2                
1 37749U 11035B   16294.03169476 -.00000220  00000-0  00000+0 0  9992
2 37749   0.0288 306.6326 0001322 318.2263 222.0030  1.00277493 19203
ASTRA 1N                
1 37775U 11041A   16294.23233352  .00000099  00000-0  00000+0 0  9998
2 37775   0.0547  28.9026 0000715 146.4122 316.6570  1.00272308 19031
BSAT-3C (JCSAT-110R)    
1 37776U 11041B   16294.04966072  .00000000  00000-0  10000-3 0  9997
2 37776   0.0252  99.4858 0000400 270.3902 146.9338  1.00265232 19152
PAKSAT-1R               
1 37779U 11042A   16294.16590786  .00000133  00000-0  00000+0 0  9991
2 37779   0.0324  68.9645 0001553 147.4257 270.3932  1.00272519 18918
CHINASAT 1A (ZX 1A)     
1 37804U 11047A   16293.86336579  .00000000  00000-0  10000-3 0  9997
2 37804   0.0483  87.6990 0001705 177.8260 203.9019  1.00266641 18719
COSMOS 2473             
1 37806U 11048A   16293.22832358 -.00000126  00000-0  00000+0 0  9991
2 37806   0.0493 120.5405 0005230 146.1904 190.1229  1.00271119 18694
SES-2                   
1 37809U 11049A   16293.39740692 -.00000215  00000-0  00000+0 0  9991
2 37809   0.0117 107.9466 0002667 107.5295 228.9102  1.00270976 18646
ARABSAT-5C              
1 37810U 11049B   16294.23392612  .00000103  00000-0  00000+0 0  9997
2 37810   0.0651  12.4981 0002934 193.3012 287.5504  1.00273245 18548
EUTELSAT 7 WEST A       
1 37816U 11051A   16293.94003388 -.00000080  00000-0  00000+0 0  9997
2 37816   0.0641  17.5018 0005500 199.3743 143.1123  1.00271376 18603
